[{"OBJECT_NAME":"ONEWEB-0250","OBJECT_ID":"2021-060B","EPOCH":"2026-03-09T21:59:24.758592","MEAN_MOTION":13.25827467,"ECCENTRICITY":0.00025959,"INCLINATION":87.9003,"RA_OF_ASC_NODE":246.6014,"ARG_OF_PERICENTER":83.7551,"MEAN_ANOMALY":276.3881,"EPHEMERIS_TYPE":0,"CLASSIFICATION_TYPE":"U","NORAD_CAT_ID":48968,"ELEMENT_SET_NO":999,"REV_AT_EPOCH":22706,"BSTAR":4.5056546e-5,"MEAN_MOTION_DOT":3.3e-7,"MEAN_MOTION_DDOT":0},{"OBJECT_NAME":"HULIANWANG DIGUI-21","OBJECT_ID":"2025-086B","EPOCH":"2026-03-09T21:54:40.925952","MEAN_MOTION":13.24422255,"ECCENTRICITY":0.00017235,"INCLINATION":86.5151,"RA_OF_ASC_NODE":346.5947,"ARG_OF_PERICENTER":94.6569,"MEAN_ANOMALY":265.4762,"EPHEMERIS_TYPE":0,"CLASSIFICATION_TYPE":"U","NORAD_CAT_ID":63688,"ELEMENT_SET_NO":999,"REV_AT_EPOCH":4172,"BSTAR":6.2460039e-5,"MEAN_MOTION_DOT":4.1e-7,"MEAN_MOTION_DDOT":0}]
